ELEKTRO-L 1 (GOMS 2)    
1 37344U 11001A   25061.27406166 -.00000103  00000+0  00000+0 0  9993
2 37344   8.6082  59.1625 0003898  14.9628 173.2073  1.00253507 51757
RESOURCESAT-2           
1 37387U 11015A   25063.50517771 -.00000033  00000+0  52503-5 0  9991
2 37387  98.8208 127.7411 0014552 122.5564 237.7021 14.21521421719978
YOUTHSAT                
1 37388U 11015B   25063.51211566  .00000511  00000+0  23437-3 0  9998
2 37388  98.3191  55.3250 0013316 283.0593 188.7620 14.25297983721255
APRIZESAT 6             
1 37793U 11044F   25063.28352211  .00001670  00000+0  24818-3 0  9998
2 37793  98.2719 318.7889 0044729 146.4096 327.9326 14.75747780727960
JUGNU                   
1 37839U 11058B   25062.93402260  .00000618  00000+0  18365-3 0  9996
2 37839  19.9610 284.8868 0018628 283.6290 216.0865 14.13529788692516
SRMSAT                  
1 37841U 11058D   25063.25980641  .00000614  00000+0  19003-3 0  9995
2 37841  19.9732  23.4525 0011883  75.1617  59.6514 14.11375728691561
SUOMI NPP               
1 37849U 11061A   25063.48361580  .00000216  00000+0  12336-3 0  9997
2 37849  98.7493   3.8697 0000837 157.1390 202.9823 14.19566549691798
YAOGAN-12               
1 37875U 11066B   25063.53544604  .00011056  00000+0  46581-3 0  9990
2 37875  97.1810 118.6626 0012542  86.7574 273.5098 15.23427589741067
ZIYUAN 3-1 (ZY 3-1)     
1 38046U 12001A   25063.47558397  .00023560  00000+0  45219-3 0  9998
2 38046  97.2052 128.0894 0001927 280.9571  79.1463 15.47975793730985
BEIDOU-2 M4             
1 38251U 12018B   25062.21131157 -.00000064  00000+0  00000+0 0  9996
2 38251  56.0525 319.9509 0013253 280.0497  79.8539  1.86231987 87522
ARIRANG-3 (KOMPSAT-3)   
1 38338U 12025B   25063.50873092  .00001289  00000+0  26512-3 0  9993
2 38338  98.2948  16.5738 0008025 127.9224 232.2704 14.62260998682811
HORYU-2                 
1 38340U 12025D   25063.28032806  .00005059  00000+0  58023-3 0  9992
2 38340  98.1681 175.1638 0008282 274.2321  85.7947 14.86336856689211
CSSWE                   
1 38761U 12048D   25063.48910610  .00020194  00000+0  78213-3 0  9994
2 38761  64.6643 213.4978 0119200 300.6765  58.2655 15.19789249 44453
CP5                     
1 38763U 12048F   25062.88097998  .00011082  00000+0  51528-3 0  9990
2 38763  64.6563 249.3351 0130506 304.9151  53.9763 15.13034016 45268
METOP-B                 
1 38771U 12049A   25063.47136479  .00000250  00000+0  13384-3 0  9997
2 38771  98.5915 120.3612 0000342  98.3631 261.7586 14.21444718646523
SJ-9A                   
1 38860U 12056A   25063.51473998  .00002818  00000+0  34323-3 0  9997
2 38860  97.6180  49.6531 0026501   6.9520 353.2057 14.83915656669107
COSMOS 2484             
1 39059U 13001C   25062.89804040  .00000048  00000+0  27442-3 0  9992
2 39059  82.5055 154.3364 0025361 341.1719  18.8421 12.42916556550131
SARAL                   
1 39086U 13009A   25062.90596114  .00000252  00000+0  10868-3 0  9993
2 39086  98.5527 250.5220 0001150 206.7256 153.3869 14.32670480628269
AAUSAT 3                
1 39087U 13009B   25063.50731304  .00001698  00000+0  56417-3 0  9998
2 39087  98.3669 253.3982 0011757 178.1390 181.9844 14.38934353629928
STRAND-1                
1 39090U 13009E   25062.48118715  .00000841  00000+0  29983-3 0  9990
2 39090  98.3809 249.7536 0008533 191.2234 168.8763 14.36671541629461
BRITE-AUSTRIA           
1 39091U 13009F   25062.52300281  .00000545  00000+0  20140-3 0  9994
2 39091  98.3865 249.0608 0009871 199.8407 160.2397 14.36211230629496
UNIBRITE                
1 39092U 13009G   25062.77190015  .00000520  00000+0  19319-3 0  9993
2 39092  98.3904 249.2946 0008887 194.2430 165.8507 14.36083625629465
AIST-2 (RS-43)          
1 39133U 13015D   25063.30063396  .00008900  00000+0  42805-3 0  9993
2 39133  64.8738 345.5653 0027123 291.3906  68.4328 15.19020336652793
GAOFEN-1                
1 39150U 13018A   25063.49835557  .00001463  00000+0  21693-3 0  9990
2 39150  97.9587 138.6795 0017351 344.8580  15.2108 14.76509073638975
NEE-01 PEGASO           
1 39151U 13018B   25063.57011846  .00005774  00000+0  60811-3 0  9991
2 39151  98.0573 190.4055 0012829 267.6201  92.3547 14.89709652640699
TURKSAT-3USAT           
1 39152U 13018C   25063.20175255  .00005743  00000+0  57489-3 0  9990
2 39152  97.8103 152.0222 0012746 219.6962 140.3325 14.91736953640915
CUBEBUG-1 (CAPITAN BETO)
1 39153U 13018D   25063.33318719  .00007236  00000+0  71273-3 0  9995
2 39153  98.1027 200.7929 0012281 257.9806 102.0036 14.92319795640945
PROBA-V                 
1 39159U 13021A   25063.45379182  .00000189  00000+0  10131-3 0  9995
2 39159  98.3180  61.5803 0005377  73.9379 286.2392 14.23443247614288
ESTCUBE 1               
1 39161U 13021C   25063.15532840  .00002628  00000+0  36186-3 0  9995
2 39161  97.7924 127.7114 0009894 106.2381 253.9920 14.79051213635528
ARIRANG-5 (KOMPSAT-5)   
1 39227U 13042A   25063.48394542  .00005191  00000+0  37488-3 0  9996
2 39227  97.6183 251.7408 0001989 317.6623  42.4449 15.04514841633294
GONETS-M 5              
1 39249U 13048A   25063.08830546  .00000021  00000+0  79120-4 0  9998
2 39249  82.4773 276.4223 0016455 155.8063 204.3793 12.42860001520644
GONETS-M 7              
1 39251U 13048C   25063.46452492  .00000019  00000+0  66158-4 0  9997
2 39251  82.4842 278.8670 0017250 156.2029 203.9851 12.42892685520662
FENGYUN 3C              
1 39260U 13052A   25063.53221445  .00000262  00000+0  15478-3 0  9990
2 39260  98.4488  55.5043 0013651 298.4282  61.5517 14.15572805592184
CASSIOPE                
1 39265U 13055A   25063.10723651  .00040476  00000+0  68779-3 0  9990
2 39265  80.9415 262.0067 0418553 167.5224 193.6760 14.90777489596817
APRIZESAT 7             
1 39416U 13066A   25062.87145072  .00003264  00000+0  34391-3 0  9995
2 39416  97.7091  20.4039 0036423 332.2168  27.7104 14.89554032611166
ZACUBE-1 (TSHEPISOSAT)  
1 39417U 13066B   25062.86394038  .00009241  00000+0  83321-3 0  9991
2 39417  97.7693  20.5655 0046362  20.7841 339.5251 14.94943955610304
APRIZESAT 8             
1 39425U 13066K   25063.42231252  .00002862  00000+0  32704-3 0  9992
2 39425  97.7654  14.7345 0048419  32.8863 327.5349 14.85975092610137
CINEMA-3 (KHUSAT-2)     
1 39426U 13066L   25063.35547060  .00003388  00000+0  46558-3 0  9998
2 39426  97.8472 343.3256 0092002 293.2433  65.9110 14.76106227605355
TRITON-1                
1 39427U 13066M   25063.43198744  .00006109  00000+0  79058-3 0  9994
2 39427  97.8397 339.7145 0095150 322.5609  36.8998 14.78067319604794
DELFI-N3XT              
1 39428U 13066N   25063.48910188  .00012227  00000+0  13071-2 0  9994
2 39428  97.8364 342.3657 0087240 321.1378  38.3585 14.86107767604820
GOMX-1                  
1 39430U 13066Q   25063.51957142  .00003499  00000+0  55300-3 0  9995
2 39430  97.6972 288.1001 0134697 142.4811 218.5889 14.66970491601175
BRITE-PL1 (LEM)         
1 39431U 13066R   25062.99144981  .00001030  00000+0  21688-3 0  9997
2 39431  97.7357 205.7838 0194200  34.1329 327.2178 14.50291272595957
ICUBE-1                 
1 39432U 13066S   25063.45744954  .00014093  00000+0  83252-3 0  9994
2 39432  97.5297  44.7598 0023534 157.1715 203.0567 15.11375955614335
HUMSAT-D                
1 39433U 13066T   25063.01801239  .00033744  00000+0  12763-2 0  9999
2 39433  97.5036  57.6920 0016816 102.1344 258.1779 15.26748372615321
VELOX-PII               
1 39438U 13066Y   25062.82426803  .00005110  00000+0  53567-3 0  9996
2 39438  97.8201  11.8529 0059667  97.7823 263.0174 14.88665478607745
FIRST-MOVE              
1 39439U 13066Z   25063.49435078  .00040049  00000+0  18701-2 0  9995
2 39439  97.7392  34.6111 0027953 334.5302  25.4552 15.19352071611217
CUBEBUG-2 (LO-74)       
1 39440U 13066AA  25063.39363762  .00006669  00000+0  69685-3 0  9994
2 39440  97.8406   8.7751 0065146 139.0578 221.5557 14.88429651608176
NEE-02 KRYSAOR          
1 39441U 13066AB  25063.35576784  .00003452  00000+0  40874-3 0  9997
2 39441  97.8476   3.2617 0070434 166.6012 193.7093 14.83453023607629
FUNCUBE-1 (AO-73)       
1 39444U 13066AE  25063.43867863  .00013612  00000+0  10833-2 0  9990
2 39444  97.7554  25.2718 0041622 357.4066   2.6935 14.99826317609600
HINCUBE                 
1 39445U 13066AF  25063.43592795  .00013120  00000+0  10604-2 0  9990
2 39445  97.7561  24.7753 0041810   0.4074 359.7176 14.99239407609101
UWE-3                   
1 39446U 13066AG  25062.84145352  .00007112  00000+0  69737-3 0  9994
2 39446  97.8140  14.4670 0056950  83.2750 277.4945 14.91310384607330
SMDC ONE 2.4            
1 39469U 13072H   25062.84355009  .00013225  00000+0  70480-3 0  9997
2 39469 120.4936 356.2273 0173430 226.5184 132.1344 15.03649128 46751
CP8 (IPEX)              
1 39471U 13072K   25063.53244166  .00011388  00000+0  69063-3 0  9991
2 39471 120.4673 328.1816 0187306 220.0557 138.6559 14.97709300 44638
COSMOS 2488             
1 39483U 13076A   25062.85077012  .00000015  00000+0  39843-4 0  9995
2 39483  82.4798 101.8167 0019887  44.2348 316.0317 12.42858606507464
COSMOS 2489             
1 39484U 13076B   25062.90483148  .00000029  00000+0  13988-3 0  9999
2 39484  82.4836 103.0194 0021847  44.4325 315.8503 12.42897831507522
COSMOS 2490             
1 39485U 13076C   25062.87488705  .00000033  00000+0  16616-3 0  9996
2 39485  82.4781 101.3072 0022139  59.5386 300.7877 12.42857195507455
AIST-1 (RS-41)          
1 39492U 13078C   25063.52966304  .00003704  00000+0  34517-3 0  9993
2 39492  82.4197   5.1248 0019127  53.2745 307.0228 14.93877793607403
KAZEOSAT 1              
1 39731U 14024A   25063.41541709  .00000485  00000+0  16085-3 0  9990
2 39731  98.3671 141.2564 0001189  85.6672 274.4653 14.42007286570901
COSMOS 2496             
1 39761U 14028A   25062.91823883  .00000034  00000+0  17370-3 0  9995
2 39761  82.4445  43.2731 0020508  27.9029 332.3146 12.42885220489095
